******** Week 261 almanac for PRN-19 ********
ID:                         19
Health:                     000
Eccentricity:               0.9702682495E-002
Time of Applicability(s):  589824.0000
Orbital Inclination(rad):   0.9684715799
Rate of Right Ascen(r/s):  -0.7931758961E-008
SQRT(A)  (m 1/2):           5153.651855
Right Ascen at Week(rad):   0.1953497943E+001
Argument of Perigee(rad):   2.510121747
Mean Anom(rad):            -0.2942497976E+000
Af0(s):                     0.4673004150E-003
Af1(s/s):                   0.3637978807E-011
week:                        261

******** Week 261 almanac for PRN-20 ********
ID:                         20
Health:                     000
Eccentricity:               0.3672599792E-002
Time of Applicability(s):  589824.0000
Orbital Inclination(rad):   0.9533654644
Rate of Right Ascen(r/s):  -0.7931758961E-008
SQRT(A)  (m 1/2):           5153.716797
Right Ascen at Week(rad):  -0.2516701836E+001
Argument of Perigee(rad):  -2.595952392
Mean Anom(rad):             0.2427259820E+001
Af0(s):                     0.3805160522E-003
Af1(s/s):                   0.0000000000E+000
week:                        261

******** Week 261 almanac for PRN-21 ********
ID:                         21
Health:                     000
Eccentricity:               0.2522850037E-001
Time of Applicability(s):  589824.0000
Orbital Inclination(rad):   0.9618862483
Rate of Right Ascen(r/s):  -0.8000333246E-008
SQRT(A)  (m 1/2):           5153.654785
Right Ascen at Week(rad):   0.2804998844E+001
Argument of Perigee(rad):  -0.590577360
Mean Anom(rad):            -0.2449393560E+001
Af0(s):                     0.1277923584E-003
Af1(s/s):                   0.0000000000E+000
week:                        261

******** Week 261 almanac for PRN-22 ********
ID:                         22
Health:                     000
Eccentricity:               0.1435565948E-001
Time of Applicability(s):  589824.0000
Orbital Inclination(rad):   0.9617184692
Rate of Right Ascen(r/s):  -0.7691748964E-008
SQRT(A)  (m 1/2):           5153.661621
Right Ascen at Week(rad):   0.8908533505E+000
Argument of Perigee(rad):  -1.137415296
Mean Anom(rad):            -0.1799781908E+001
Af0(s):                     0.9536743164E-006
Af1(s/s):                  -0.7275957614E-011
week:                        261

******** Week 261 almanac for PRN-23 ********
ID:                         23
Health:                     000
Eccentricity:               0.4050254822E-002
Time of Applicability(s):  589824.0000
Orbital Inclination(rad):   0.9786581711
Rate of Right Ascen(r/s):  -0.7623174679E-008
SQRT(A)  (m 1/2):           5153.669922
Right Ascen at Week(rad):  -0.2369247933E+001
Argument of Perigee(rad):  -2.958775550
Mean Anom(rad):             0.7922186854E+000
Af0(s):                     0.2002716064E-003
Af1(s/s):                   0.1091393642E-010
week:                        261

******** Week 261 almanac for PRN-24 ********
ID:                         24
Health:                     000
Eccentricity:               0.1519012451E-001
Time of Applicability(s):  589824.0000
Orbital Inclination(rad):   0.9341907046
Rate of Right Ascen(r/s):  -0.8080336578E-008
SQRT(A)  (m 1/2):           5153.655273
Right Ascen at Week(rad):  -0.3417395359E+000
Argument of Perigee(rad):   0.973133294
Mean Anom(rad):             0.2127680039E+001
Af0(s):                    -0.4587173462E-003
Af1(s/s):                  -0.3637978807E-011
week:                        261

******** Week 261 almanac for PRN-25 ********
ID:                         25
Health:                     000
Eccentricity:               0.1178741455E-001
Time of Applicability(s):  589824.0000
Orbital Inclination(rad):   0.9508847298
Rate of Right Ascen(r/s):  -0.7817468486E-008
SQRT(A)  (m 1/2):           5153.535156
Right Ascen at Week(rad):   0.7835743142E+000
Argument of Perigee(rad):   1.087999093
Mean Anom(rad):             0.3154424013E+000
Af0(s):                     0.4940032959E-003
Af1(s/s):                   0.0000000000E+000
week:                        261

******** Week 261 almanac for PRN-26 ********
ID:                         26
Health:                     000
Eccentricity:               0.8840084076E-002
Time of Applicability(s):  589824.0000
Orbital Inclination(rad):   0.9316919937
Rate of Right Ascen(r/s):  -0.7988904198E-008
SQRT(A)  (m 1/2):           5153.563477
Right Ascen at Week(rad):   0.7219087359E+000
Argument of Perigee(rad):   0.541545028
Mean Anom(rad):            -0.4909521241E+000
Af0(s):                     0.1668930054E-003
Af1(s/s):                  -0.3637978807E-011
week:                        261

******** Week 261 almanac for PRN-27 ********
ID:                         27
Health:                     000
Eccentricity:               0.1256084442E-001
Time of Applicability(s):  589824.0000
Orbital Inclination(rad):   0.9625274043
Rate of Right Ascen(r/s):  -0.7977475151E-008
SQRT(A)  (m 1/2):           5153.630859
Right Ascen at Week(rad):   0.1841142464E+001
Argument of Perigee(rad):   0.783785536
Mean Anom(rad):            -0.2258229069E+001
Af0(s):                    -0.1811981201E-004
Af1(s/s):                  -0.3637978807E-011
week:                        261

******** Week 261 almanac for PRN-28 ********
ID:                         28
Health:                     000
Eccentricity:               0.4472732544E-003
Time of Applicability(s):  589824.0000
Orbital Inclination(rad):   0.9616645402
Rate of Right Ascen(r/s):  -0.7783181344E-008
SQRT(A)  (m 1/2):           5153.572266
Right Ascen at Week(rad):  -0.2790800159E+000
Argument of Perigee(rad):   1.753008976
Mean Anom(rad):            -0.3667251468E+000
Af0(s):                    -0.2021789551E-003
Af1(s/s):                  -0.1455191523E-010
week:                        261

******** Week 261 almanac for PRN-29 ********
ID:                         29
Health:                     000
Eccentricity:               0.2808570862E-002
Time of Applicability(s):  589824.0000
Orbital Inclination(rad):   0.9716953364
Rate of Right Ascen(r/s):  -0.7897471819E-008
SQRT(A)  (m 1/2):           5153.566406
Right Ascen at Week(rad):   0.1924032105E+001
Argument of Perigee(rad):   2.501955996
Mean Anom(rad):            -0.2299572773E+001
Af0(s):                    -0.6017684937E-003
Af1(s/s):                   0.0000000000E+000
week:                        261

******** Week 261 almanac for PRN-30 ********
ID:                         30
Health:                     000
Eccentricity:               0.7040023804E-002
Time of Applicability(s):  589824.0000
Orbital Inclination(rad):   0.9357127011
Rate of Right Ascen(r/s):  -0.8046049436E-008
SQRT(A)  (m 1/2):           5153.596191
Right Ascen at Week(rad):  -0.2442209017E+000
Argument of Perigee(rad):  -2.490432040
Mean Anom(rad):             0.9559951030E+000
Af0(s):                    -0.4053115845E-003
Af1(s/s):                   0.7275957614E-011
week:                        261

******** Week 261 almanac for PRN-31 ********
ID:                         31
Health:                     000
Eccentricity:               0.1050138474E-001
Time of Applicability(s):  589824.0000
Orbital Inclination(rad):   0.9545818632
Rate of Right Ascen(r/s):  -0.7840326581E-008
SQRT(A)  (m 1/2):           5153.646973
Right Ascen at Week(rad):  -0.2241814052E+000
Argument of Perigee(rad):   0.668425387
Mean Anom(rad):             0.2352529564E+000
Af0(s):                    -0.2279281616E-003
Af1(s/s):                   0.0000000000E+000
week:                        261

******** Week 261 almanac for PRN-32 ********
ID:                         32
Health:                     000
Eccentricity:               0.7724285126E-002
Time of Applicability(s):  589824.0000
Orbital Inclination(rad):   0.9612690607
Rate of Right Ascen(r/s):  -0.7783181344E-008
SQRT(A)  (m 1/2):           5153.604980
Right Ascen at Week(rad):  -0.1303470963E+001
Argument of Perigee(rad):  -2.141897075
Mean Anom(rad):            -0.1606110467E+001
Af0(s):                    -0.6179809570E-003
Af1(s/s):                   0.0000000000E+000
week:                        261

